[
  {
    "OBJECT_NAME": "SCD 1",
    "OBJECT_ID": "1993-009B",
    "EPOCH": "2025-05-10T14:25:13.669824",
    "MEAN_MOTION": 14.45841462,
    "ECCENTRICITY": 0.0042005,
    "INCLINATION": 24.9679,
    "RA_OF_ASC_NODE": 172.7556,
    "ARG_OF_PERICENTER": 197.5777,
    "MEAN_ANOMALY": 283.56,
    "EPHEMERIS_TYPE": 0,
    "CLASSIFICATION_TYPE": "U",
    "NORAD_CAT_ID": 22490,
    "ELEMENT_SET_NO": 999,
    "REV_AT_EPOCH": 70278,
    "BSTAR": 8.5819e-05,
    "MEAN_MOTION_DOT": 4.99e-06,
    "MEAN_MOTION_DDOT": 0
  },
  {
    "OBJECT_NAME": "TECHSAT 1B (GO-32)",
    "OBJECT_ID": "1998-043D",
    "EPOCH": "2025-05-10T16:41:42.026784",
    "MEAN_MOTION": 14.2430737,
    "ECCENTRICITY": 6.07e-05,
    "INCLINATION": 98.9688,
    "RA_OF_ASC_NODE": 109.1942,
    "ARG_OF_PERICENTER": 353.0509,
    "MEAN_ANOMALY": 7.0661,
    "EPHEMERIS_TYPE": 0,
    "CLASSIFICATION_TYPE": "U",
    "NORAD_CAT_ID": 25397,
    "ELEMENT_SET_NO": 999,
    "REV_AT_EPOCH": 39425,
    "BSTAR": 6.1569e-05,
    "MEAN_MOTION_DOT": 9.6e-07,
    "MEAN_MOTION_DDOT": 0
  },
  {
    "OBJECT_NAME": "SCD 2",
    "OBJECT_ID": "1998-060A",
    "EPOCH": "2025-05-10T10:45:30.229920",
    "MEAN_MOTION": 14.45284754,
    "ECCENTRICITY": 0.0016818,
    "INCLINATION": 24.9962,
    "RA_OF_ASC_NODE": 35.3674,
    "ARG_OF_PERICENTER": 187.2148,
    "MEAN_ANOMALY": 333.6828,
    "EPHEMERIS_TYPE": 0,
    "CLASSIFICATION_TYPE": "U",
    "NORAD_CAT_ID": 25504,
    "ELEMENT_SET_NO": 999,
    "REV_AT_EPOCH": 40199,
    "BSTAR": 9.1648e-05,
    "MEAN_MOTION_DOT": 5.09e-06,
    "MEAN_MOTION_DDOT": 0
  },
  {
    "OBJECT_NAME": "DLR-TUBSAT",
    "OBJECT_ID": "1999-029B",
    "EPOCH": "2025-05-10T21:10:46.900992",
    "MEAN_MOTION": 14.52261152,
    "ECCENTRICITY": 0.0015096,
    "INCLINATION": 98.6338,
    "RA_OF_ASC_NODE": 109.0168,
    "ARG_OF_PERICENTER": 130.6911,
    "MEAN_ANOMALY": 229.5597,
    "EPHEMERIS_TYPE": 0,
    "CLASSIFICATION_TYPE": "U",
    "NORAD_CAT_ID": 25757,
    "ELEMENT_SET_NO": 999,
    "REV_AT_EPOCH": 37495,
    "BSTAR": 4.9036e-05,
    "MEAN_MOTION_DOT": 1.51e-06,
    "MEAN_MOTION_DDOT": 0
  },
  {
    "OBJECT_NAME": "TERRA",
    "OBJECT_ID": "1999-068A",
    "EPOCH": "2025-05-10T21:50:20.181984",
    "MEAN_MOTION": 14.60672004,
    "ECCENTRICITY": 0.0003545,
    "INCLINATION": 98.0002,
    "RA_OF_ASC_NODE": 190.1354,
    "ARG_OF_PERICENTER": 72.7682,
    "MEAN_ANOMALY": 39.6776,
    "EPHEMERIS_TYPE": 0,
    "CLASSIFICATION_TYPE": "U",
    "NORAD_CAT_ID": 25994,
    "ELEMENT_SET_NO": 999,
    "REV_AT_EPOCH": 35099,
    "BSTAR": 0.00012157,
    "MEAN_MOTION_DOT": 5.47e-06,
    "MEAN_MOTION_DDOT": 0
  },
  {
    "OBJECT_NAME": "MAROC-TUBSAT",
    "OBJECT_ID": "2001-056D",
    "EPOCH": "2025-05-10T10:49:00.682176",
    "MEAN_MOTION": 13.70241186,
    "ECCENTRICITY": 0.0020651,
    "INCLINATION": 99.7748,
    "RA_OF_ASC_NODE": 295.304,
    "ARG_OF_PERICENTER": 94.6239,
    "MEAN_ANOMALY": 289.3829,
    "EPHEMERIS_TYPE": 0,
    "CLASSIFICATION_TYPE": "U",
    "NORAD_CAT_ID": 27004,
    "ELEMENT_SET_NO": 999,
    "REV_AT_EPOCH": 17103,
    "BSTAR": 3.8683e-05,
    "MEAN_MOTION_DOT": -1.2e-07,
    "MEAN_MOTION_DDOT": 0
  },
  {
    "OBJECT_NAME": "AQUA",
    "OBJECT_ID": "2002-022A",
    "EPOCH": "2025-05-10T21:09:08.923392",
    "MEAN_MOTION": 14.61231524,
    "ECCENTRICITY": 0.0001798,
    "INCLINATION": 98.3757,
    "RA_OF_ASC_NODE": 88.7702,
    "ARG_OF_PERICENTER": 104.1608,
    "MEAN_ANOMALY": 277.7097,
    "EPHEMERIS_TYPE": 0,
    "CLASSIFICATION_TYPE": "U",
    "NORAD_CAT_ID": 27424,
    "ELEMENT_SET_NO": 999,
    "REV_AT_EPOCH": 22454,
    "BSTAR": 0.00022809,
    "MEAN_MOTION_DOT": 1.076e-05,
    "MEAN_MOTION_DDOT": 0
  },
  {
    "OBJECT_NAME": "IRS-P6 (RESOURCESAT-1)",
    "OBJECT_ID": "2003-046A",
    "EPOCH": "2025-05-10T21:00:06.139584",
    "MEAN_MOTION": 14.35964122,
    "ECCENTRICITY": 0.0065701,
    "INCLINATION": 98.2433,
    "RA_OF_ASC_NODE": 180.8937,
    "ARG_OF_PERICENTER": 108.3939,
    "MEAN_ANOMALY": 64.6788,
    "EPHEMERIS_TYPE": 0,
    "CLASSIFICATION_TYPE": "U",
    "NORAD_CAT_ID": 28051,
    "ELEMENT_SET_NO": 999,
    "REV_AT_EPOCH": 12281,
    "BSTAR": 0.00012409,
    "MEAN_MOTION_DOT": 3.29e-06,
    "MEAN_MOTION_DDOT": 0
  },
  {
    "OBJECT_NAME": "SHIYAN-1 (SY-1)",
    "OBJECT_ID": "2004-012A",
    "EPOCH": "2025-05-10T08:58:02.506368",
    "MEAN_MOTION": 15.22567061,
    "ECCENTRICITY": 0.0006725,
    "INCLINATION": 97.9196,
    "RA_OF_ASC_NODE": 179.8446,
    "ARG_OF_PERICENTER": 2.5178,
    "MEAN_ANOMALY": 357.609,
    "EPHEMERIS_TYPE": 0,
    "CLASSIFICATION_TYPE": "U",
    "NORAD_CAT_ID": 28220,
    "ELEMENT_SET_NO": 999,
    "REV_AT_EPOCH": 14959,
    "BSTAR": 0.00055023,
    "MEAN_MOTION_DOT": 0.00012716,
    "MEAN_MOTION_DDOT": 0
  },
  {
    "OBJECT_NAME": "AURA",
    "OBJECT_ID": "2004-026A",
    "EPOCH": "2025-05-10T20:41:06.991008",
    "MEAN_MOTION": 14.60372756,
    "ECCENTRICITY": 0.0001684,
    "INCLINATION": 98.2925,
    "RA_OF_ASC_NODE": 80.5941,
    "ARG_OF_PERICENTER": 90.532,
    "MEAN_ANOMALY": 269.6073,
    "EPHEMERIS_TYPE": 0,
    "CLASSIFICATION_TYPE": "U",
    "NORAD_CAT_ID": 28376,
    "ELEMENT_SET_NO": 999,
    "REV_AT_EPOCH": 10751,
    "BSTAR": 0.00022808,
    "MEAN_MOTION_DOT": 1.056e-05,
    "MEAN_MOTION_DDOT": 0
  },
  {
    "OBJECT_NAME": "IRS-P5 (CARTOSAT-1)",
    "OBJECT_ID": "2005-017A",
    "EPOCH": "2025-05-10T16:45:24.891264",
    "MEAN_MOTION": 14.89559346,
    "ECCENTRICITY": 0.0001213,
    "INCLINATION": 97.5696,
    "RA_OF_ASC_NODE": 166.4838,
    "ARG_OF_PERICENTER": 53.4467,
    "MEAN_ANOMALY": 306.6863,
    "EPHEMERIS_TYPE": 0,
    "CLASSIFICATION_TYPE": "U",
    "NORAD_CAT_ID": 28649,
    "ELEMENT_SET_NO": 999,
    "REV_AT_EPOCH": 8394,
    "BSTAR": 0.00019161,
    "MEAN_MOTION_DOT": 1.775e-05,
    "MEAN_MOTION_DDOT": 0
  },
  {
    "OBJECT_NAME": "SINAH 1",
    "OBJECT_ID": "2005-043D",
    "EPOCH": "2025-05-10T14:37:27.515136",
    "MEAN_MOTION": 14.63690302,
    "ECCENTRICITY": 0.0015887,
    "INCLINATION": 98.2326,
    "RA_OF_ASC_NODE": 259.0163,
    "ARG_OF_PERICENTER": 97.4068,
    "MEAN_ANOMALY": 262.894,
    "EPHEMERIS_TYPE": 0,
    "CLASSIFICATION_TYPE": "U",
    "NORAD_CAT_ID": 28893,
    "ELEMENT_SET_NO": 999,
    "REV_AT_EPOCH": 4162,
    "BSTAR": 0.00011116,
    "MEAN_MOTION_DOT": 5.31e-06,
    "MEAN_MOTION_DDOT": 0
  },
  {
    "OBJECT_NAME": "EROS B",
    "OBJECT_ID": "2006-014A",
    "EPOCH": "2025-05-10T19:28:31.598112",
    "MEAN_MOTION": 15.37494481,
    "ECCENTRICITY": 0.0006759,
    "INCLINATION": 97.3427,
    "RA_OF_ASC_NODE": 243.907,
    "ARG_OF_PERICENTER": 165.1313,
    "MEAN_ANOMALY": 195.0132,
    "EPHEMERIS_TYPE": 0,
    "CLASSIFICATION_TYPE": "U",
    "NORAD_CAT_ID": 29079,
    "ELEMENT_SET_NO": 999,
    "REV_AT_EPOCH": 5741,
    "BSTAR": 0.00091826,
    "MEAN_MOTION_DOT": 0.00033818,
    "MEAN_MOTION_DDOT": 0
  },
  {
    "OBJECT_NAME": "RESURS-DK 1",
    "OBJECT_ID": "2006-021A",
    "EPOCH": "2025-05-10T17:47:40.444512",
    "MEAN_MOTION": 15.10812124,
    "ECCENTRICITY": 0.000748,
    "INCLINATION": 69.9331,
    "RA_OF_ASC_NODE": 299.3692,
    "ARG_OF_PERICENTER": 240.1164,
    "MEAN_ANOMALY": 119.9258,
    "EPHEMERIS_TYPE": 0,
    "CLASSIFICATION_TYPE": "U",
    "NORAD_CAT_ID": 29228,
    "ELEMENT_SET_NO": 999,
    "REV_AT_EPOCH": 4176,
    "BSTAR": 0.00019172,
    "MEAN_MOTION_DOT": 3.089e-05,
    "MEAN_MOTION_DDOT": 0
  },
  {
    "OBJECT_NAME": "ARIRANG-2 (KOMPSAT-2)",
    "OBJECT_ID": "2006-031A",
    "EPOCH": "2025-05-10T20:52:11.377632",
    "MEAN_MOTION": 14.64273813,
    "ECCENTRICITY": 0.0013089,
    "INCLINATION": 97.839,
    "RA_OF_ASC_NODE": 329.7685,
    "ARG_OF_PERICENTER": 270.0486,
    "MEAN_ANOMALY": 214.3657,
    "EPHEMERIS_TYPE": 0,
    "CLASSIFICATION_TYPE": "U",
    "NORAD_CAT_ID": 29268,
    "ELEMENT_SET_NO": 999,
    "REV_AT_EPOCH": 269,
    "BSTAR": 9.7961e-05,
    "MEAN_MOTION_DOT": 4.72e-06,
    "MEAN_MOTION_DDOT": 0
  },
  {
    "OBJECT_NAME": "LAPAN-TUBSAT",
    "OBJECT_ID": "2007-001A",
    "EPOCH": "2025-05-10T21:21:57.777120",
    "MEAN_MOTION": 14.85292732,
    "ECCENTRICITY": 0.0013565,
    "INCLINATION": 98.1083,
    "RA_OF_ASC_NODE": 116.8733,
    "ARG_OF_PERICENTER": 58.8582,
    "MEAN_ANOMALY": 301.396,
    "EPHEMERIS_TYPE": 0,
    "CLASSIFICATION_TYPE": "U",
    "NORAD_CAT_ID": 29709,
    "ELEMENT_SET_NO": 999,
    "REV_AT_EPOCH": 99143,
    "BSTAR": 9.8407e-05,
    "MEAN_MOTION_DOT": 7.89e-06,
    "MEAN_MOTION_DDOT": 0
  },
  {
    "OBJECT_NAME": "HAIYANG-1B",
    "OBJECT_ID": "2007-010A",
    "EPOCH": "2025-05-10T17:37:47.038080",
    "MEAN_MOTION": 14.30883971,
    "ECCENTRICITY": 0.0012668,
    "INCLINATION": 98.3134,
    "RA_OF_ASC_NODE": 124.1547,
    "ARG_OF_PERICENTER": 319.2175,
    "MEAN_ANOMALY": 40.806,
    "EPHEMERIS_TYPE": 0,
    "CLASSIFICATION_TYPE": "U",
    "NORAD_CAT_ID": 31113,
    "ELEMENT_SET_NO": 999,
    "REV_AT_EPOCH": 94381,
    "BSTAR": 6.5117e-05,
    "MEAN_MOTION_DOT": 1.3e-06,
    "MEAN_MOTION_DDOT": 0
  },
  {
    "OBJECT_NAME": "COSMO-SKYMED 1",
    "OBJECT_ID": "2007-023A",
    "EPOCH": "2025-05-10T20:27:43.274880",
    "MEAN_MOTION": 14.86740874,
    "ECCENTRICITY": 1.03e-05,
    "INCLINATION": 97.8875,
    "RA_OF_ASC_NODE": 315.4049,
    "ARG_OF_PERICENTER": 39.1932,
    "MEAN_ANOMALY": 320.9291,
    "EPHEMERIS_TYPE": 0,
    "CLASSIFICATION_TYPE": "U",
    "NORAD_CAT_ID": 31598,
    "ELEMENT_SET_NO": 999,
    "REV_AT_EPOCH": 96973,
    "BSTAR": 8.9268e-05,
    "MEAN_MOTION_DOT": 7.4e-06,
    "MEAN_MOTION_DDOT": 0
  },
  {
    "OBJECT_NAME": "TERRASAR-X",
    "OBJECT_ID": "2007-026A",
    "EPOCH": "2025-05-10T11:21:15.536736",
    "MEAN_MOTION": 15.19148011,
    "ECCENTRICITY": 0.000164,
    "INCLINATION": 97.4453,
    "RA_OF_ASC_NODE": 138.9336,
    "ARG_OF_PERICENTER": 89.8676,
    "MEAN_ANOMALY": 270.2747,
    "EPHEMERIS_TYPE": 0,
    "CLASSIFICATION_TYPE": "U",
    "NORAD_CAT_ID": 31698,
    "ELEMENT_SET_NO": 999,
    "REV_AT_EPOCH": 99208,
    "BSTAR": 6.4933e-05,
    "MEAN_MOTION_DOT": 1.297e-05,
    "MEAN_MOTION_DDOT": 0
  }
]